<?xml version="1.0" encoding="UTF-8"?>
<ndm xmlns:xsi="http://www.w3.org/2001/XMLSchema-instance" xsi:noNamespaceSchemaLocation="https://sanaregistry.org/r/ndmxml_unqualified/ndmxml-2.0.0-master-2.0.xsd">
<omm id="CCSDS_OMM_VERS" version="2.0">
<header><CREATION_DATE/><ORIGINATOR/></header><body><segment><metadata><OBJECT_NAME>GSAT0101 (GALILEO-PFM)</OBJECT_NAME><OBJECT_ID>2011-060A</OBJECT_ID><CENTER_NAME>EARTH</CENTER_NAME><REF_FRAME>TEME</REF_FRAME><TIME_SYSTEM>UTC</TIME_SYSTEM><MEAN_ELEMENT_THEORY>SGP4</MEAN_ELEMENT_THEORY></metadata><data><meanElements><EPOCH>2025-01-08T10:35:28.649184</EPOCH><MEAN_MOTION>1.70475587</MEAN_MOTION><ECCENTRICITY>.0003381</ECCENTRICITY><INCLINATION>57.1183</INCLINATION><RA_OF_ASC_NODE>355.9799</RA_OF_ASC_NODE><ARG_OF_PERICENTER>326.7559</ARG_OF_PERICENTER><MEAN_ANOMALY>33.2271</MEAN_ANOMALY></meanElements><tleParameters><EPHEMERIS_TYPE>0</EPHEMERIS_TYPE><CLASSIFICATION_TYPE>U</CLASSIFICATION_TYPE><NORAD_CAT_ID>37846</NORAD_CAT_ID><ELEMENT_SET_NO>999</ELEMENT_SET_NO><REV_AT_EPOCH>8230</REV_AT_EPOCH><BSTAR>0</BSTAR><MEAN_MOTION_DOT>-.79E-6</MEAN_MOTION_DOT><MEAN_MOTION_DDOT>0</MEAN_MOTION_DDOT></tleParameters></data></segment></body></omm>
<omm id="CCSDS_OMM_VERS" version="2.0">
<header><CREATION_DATE/><ORIGINATOR/></header><body><segment><metadata><OBJECT_NAME>GSAT0102 (GALILEO-FM2)</OBJECT_NAME><OBJECT_ID>2011-060B</OBJECT_ID><CENTER_NAME>EARTH</CENTER_NAME><REF_FRAME>TEME</REF_FRAME><TIME_SYSTEM>UTC</TIME_SYSTEM><MEAN_ELEMENT_THEORY>SGP4</MEAN_ELEMENT_THEORY></metadata><data><meanElements><EPOCH>2025-01-11T11:44:28.410144</EPOCH><MEAN_MOTION>1.70475105</MEAN_MOTION><ECCENTRICITY>.0005308</ECCENTRICITY><INCLINATION>57.1186</INCLINATION><RA_OF_ASC_NODE>355.8976</RA_OF_ASC_NODE><ARG_OF_PERICENTER>318.3608</ARG_OF_PERICENTER><MEAN_ANOMALY>157.4972</MEAN_ANOMALY></meanElements><tleParameters><EPHEMERIS_TYPE>0</EPHEMERIS_TYPE><CLASSIFICATION_TYPE>U</CLASSIFICATION_TYPE><NORAD_CAT_ID>37847</NORAD_CAT_ID><ELEMENT_SET_NO>999</ELEMENT_SET_NO><REV_AT_EPOCH>8223</REV_AT_EPOCH><BSTAR>0</BSTAR><MEAN_MOTION_DOT>-.92E-6</MEAN_MOTION_DOT><MEAN_MOTION_DDOT>0</MEAN_MOTION_DDOT></tleParameters></data></segment></body></omm>
<omm id="CCSDS_OMM_VERS" version="2.0">
<header><CREATION_DATE/><ORIGINATOR/></header><body><segment><metadata><OBJECT_NAME>GSAT0103 (GALILEO-FM3)</OBJECT_NAME><OBJECT_ID>2012-055A</OBJECT_ID><CENTER_NAME>EARTH</CENTER_NAME><REF_FRAME>TEME</REF_FRAME><TIME_SYSTEM>UTC</TIME_SYSTEM><MEAN_ELEMENT_THEORY>SGP4</MEAN_ELEMENT_THEORY></metadata><data><meanElements><EPOCH>2025-01-07T07:23:02.098752</EPOCH><MEAN_MOTION>1.70473309</MEAN_MOTION><ECCENTRICITY>.0003498</ECCENTRICITY><INCLINATION>55.5046</INCLINATION><RA_OF_ASC_NODE>115.9944</RA_OF_ASC_NODE><ARG_OF_PERICENTER>259.7338</ARG_OF_PERICENTER><MEAN_ANOMALY>100.2147</MEAN_ANOMALY></meanElements><tleParameters><EPHEMERIS_TYPE>0</EPHEMERIS_TYPE><CLASSIFICATION_TYPE>U</CLASSIFICATION_TYPE><NORAD_CAT_ID>38857</NORAD_CAT_ID><ELEMENT_SET_NO>999</ELEMENT_SET_NO><REV_AT_EPOCH>7604</REV_AT_EPOCH><BSTAR>0</BSTAR><MEAN_MOTION_DOT>-.1E-7</MEAN_MOTION_DOT><MEAN_MOTION_DDOT>0</MEAN_MOTION_DDOT></tleParameters></data></segment></body></omm>
<omm id="CCSDS_OMM_VERS" version="2.0">
<header><CREATION_DATE/><ORIGINATOR/></header><body><segment><metadata><OBJECT_NAME>GSAT0201 (GALILEO 5)</OBJECT_NAME><OBJECT_ID>2014-050A</OBJECT_ID><CENTER_NAME>EARTH</CENTER_NAME><REF_FRAME>TEME</REF_FRAME><TIME_SYSTEM>UTC</TIME_SYSTEM><MEAN_ELEMENT_THEORY>SGP4</MEAN_ELEMENT_THEORY></metadata><data><meanElements><EPOCH>2025-01-11T03:18:37.258272</EPOCH><MEAN_MOTION>1.85519510</MEAN_MOTION><ECCENTRICITY>.1617495</ECCENTRICITY><INCLINATION>49.4399</INCLINATION><RA_OF_ASC_NODE>294.6853</RA_OF_ASC_NODE><ARG_OF_PERICENTER>159.2835</ARG_OF_PERICENTER><MEAN_ANOMALY>208.1452</MEAN_ANOMALY></meanElements><tleParameters><EPHEMERIS_TYPE>0</EPHEMERIS_TYPE><CLASSIFICATION_TYPE>U</CLASSIFICATION_TYPE><NORAD_CAT_ID>40128</NORAD_CAT_ID><ELEMENT_SET_NO>999</ELEMENT_SET_NO><REV_AT_EPOCH>6863</REV_AT_EPOCH><BSTAR>0</BSTAR><MEAN_MOTION_DOT>-.72E-6</MEAN_MOTION_DOT><MEAN_MOTION_DDOT>0</MEAN_MOTION_DDOT></tleParameters></data></segment></body></omm>
<omm id="CCSDS_OMM_VERS" version="2.0">
<header><CREATION_DATE/><ORIGINATOR/></header><body><segment><metadata><OBJECT_NAME>GSAT0202 (GALILEO 6)</OBJECT_NAME><OBJECT_ID>2014-050B</OBJECT_ID><CENTER_NAME>EARTH</CENTER_NAME><REF_FRAME>TEME</REF_FRAME><TIME_SYSTEM>UTC</TIME_SYSTEM><MEAN_ELEMENT_THEORY>SGP4</MEAN_ELEMENT_THEORY></metadata><data><meanElements><EPOCH>2025-01-10T07:37:08.166432</EPOCH><MEAN_MOTION>1.85520237</MEAN_MOTION><ECCENTRICITY>.1616966</ECCENTRICITY><INCLINATION>49.4567</INCLINATION><RA_OF_ASC_NODE>293.7981</RA_OF_ASC_NODE><ARG_OF_PERICENTER>160.0369</ARG_OF_PERICENTER><MEAN_ANOMALY>207.1359</MEAN_ANOMALY></meanElements><tleParameters><EPHEMERIS_TYPE>0</EPHEMERIS_TYPE><CLASSIFICATION_TYPE>U</CLASSIFICATION_TYPE><NORAD_CAT_ID>40129</NORAD_CAT_ID><ELEMENT_SET_NO>999</ELEMENT_SET_NO><REV_AT_EPOCH>7075</REV_AT_EPOCH><BSTAR>0</BSTAR><MEAN_MOTION_DOT>-.73E-6</MEAN_MOTION_DOT><MEAN_MOTION_DDOT>0</MEAN_MOTION_DDOT></tleParameters></data></segment></body></omm>
<omm id="CCSDS_OMM_VERS" version="2.0">
<header><CREATION_DATE/><ORIGINATOR/></header><body><segment><metadata><OBJECT_NAME>GSAT0203 (GALILEO 7)</OBJECT_NAME><OBJECT_ID>2015-017A</OBJECT_ID><CENTER_NAME>EARTH</CENTER_NAME><REF_FRAME>TEME</REF_FRAME><TIME_SYSTEM>UTC</TIME_SYSTEM><MEAN_ELEMENT_THEORY>SGP4</MEAN_ELEMENT_THEORY></metadata><data><meanElements><EPOCH>2025-01-11T03:40:17.677632</EPOCH><MEAN_MOTION>1.70475638</MEAN_MOTION><ECCENTRICITY>.0006022</ECCENTRICITY><INCLINATION>56.9126</INCLINATION><RA_OF_ASC_NODE>355.8123</RA_OF_ASC_NODE><ARG_OF_PERICENTER>276.1732</ARG_OF_PERICENTER><MEAN_ANOMALY>83.7539</MEAN_ANOMALY></meanElements><tleParameters><EPHEMERIS_TYPE>0</EPHEMERIS_TYPE><CLASSIFICATION_TYPE>U</CLASSIFICATION_TYPE><NORAD_CAT_ID>40544</NORAD_CAT_ID><ELEMENT_SET_NO>999</ELEMENT_SET_NO><REV_AT_EPOCH>6096</REV_AT_EPOCH><BSTAR>0</BSTAR><MEAN_MOTION_DOT>-.92E-6</MEAN_MOTION_DOT><MEAN_MOTION_DDOT>0</MEAN_MOTION_DDOT></tleParameters></data></segment></body></omm>
<omm id="CCSDS_OMM_VERS" version="2.0">
<header><CREATION_DATE/><ORIGINATOR/></header><body><segment><metadata><OBJECT_NAME>GSAT0204 (GALILEO 8)</OBJECT_NAME><OBJECT_ID>2015-017B</OBJECT_ID><CENTER_NAME>EARTH</CENTER_NAME><REF_FRAME>TEME</REF_FRAME><TIME_SYSTEM>UTC</TIME_SYSTEM><MEAN_ELEMENT_THEORY>SGP4</MEAN_ELEMENT_THEORY></metadata><data><meanElements><EPOCH>2025-01-11T09:47:06.926784</EPOCH><MEAN_MOTION>1.70475334</MEAN_MOTION><ECCENTRICITY>.0005584</ECCENTRICITY><INCLINATION>56.9188</INCLINATION><RA_OF_ASC_NODE>355.8217</RA_OF_ASC_NODE><ARG_OF_PERICENTER>267.6024</ARG_OF_PERICENTER><MEAN_ANOMALY>92.3286</MEAN_ANOMALY></meanElements><tleParameters><EPHEMERIS_TYPE>0</EPHEMERIS_TYPE><CLASSIFICATION_TYPE>U</CLASSIFICATION_TYPE><NORAD_CAT_ID>40545</NORAD_CAT_ID><ELEMENT_SET_NO>999</ELEMENT_SET_NO><REV_AT_EPOCH>2335</REV_AT_EPOCH><BSTAR>0</BSTAR><MEAN_MOTION_DOT>-.93E-6</MEAN_MOTION_DOT><MEAN_MOTION_DDOT>0</MEAN_MOTION_DDOT></tleParameters></data></segment></body></omm>
<omm id="CCSDS_OMM_VERS" version="2.0">
<header><CREATION_DATE/><ORIGINATOR/></header><body><segment><metadata><OBJECT_NAME>GSAT0205 (GALILEO 9)</OBJECT_NAME><OBJECT_ID>2015-045A</OBJECT_ID><CENTER_NAME>EARTH</CENTER_NAME><REF_FRAME>TEME</REF_FRAME><TIME_SYSTEM>UTC</TIME_SYSTEM><MEAN_ELEMENT_THEORY>SGP4</MEAN_ELEMENT_THEORY></metadata><data><meanElements><EPOCH>2025-01-10T00:04:42.882240</EPOCH><MEAN_MOTION>1.70473141</MEAN_MOTION><ECCENTRICITY>.0006292</ECCENTRICITY><INCLINATION>55.1278</INCLINATION><RA_OF_ASC_NODE>236.0565</RA_OF_ASC_NODE><ARG_OF_PERICENTER>42.1394</ARG_OF_PERICENTER><MEAN_ANOMALY>317.9946</MEAN_ANOMALY></meanElements><tleParameters><EPHEMERIS_TYPE>0</EPHEMERIS_TYPE><CLASSIFICATION_TYPE>U</CLASSIFICATION_TYPE><NORAD_CAT_ID>40889</NORAD_CAT_ID><ELEMENT_SET_NO>999</ELEMENT_SET_NO><REV_AT_EPOCH>5809</REV_AT_EPOCH><BSTAR>0</BSTAR><MEAN_MOTION_DOT>.7E-6</MEAN_MOTION_DOT><MEAN_MOTION_DDOT>0</MEAN_MOTION_DDOT></tleParameters></data></segment></body></omm>

</ndm>