GSAT0101 (GALILEO-PFM)  
1 37846U 11060A   25008.44130381 -.00000079  00000+0  00000+0 0  9990
2 37846  57.1183 355.9799 0003381 326.7559  33.2271  1.70475587 82309
GSAT0102 (GALILEO-FM2)  
1 37847U 11060B   25011.48921771 -.00000092  00000+0  00000+0 0  9995
2 37847  57.1186 355.8976 0005308 318.3608 157.4972  1.70475105 82237
GSAT0103 (GALILEO-FM3)  
1 38857U 12055A   25007.30766318 -.00000001  00000+0  00000+0 0  9992
2 38857  55.5046 115.9944 0003498 259.7338 100.2147  1.70473309 76048
GSAT0201 (GALILEO 5)    
1 40128U 14050A   25011.13793123 -.00000072  00000+0  00000+0 0  9991
2 40128  49.4399 294.6853 1617495 159.2835 208.1452  1.85519510 68638
GSAT0202 (GALILEO 6)    
1 40129U 14050B   25010.31745563 -.00000073  00000+0  00000+0 0  9997
2 40129  49.4567 293.7981 1616966 160.0369 207.1359  1.85520237 70751
GSAT0203 (GALILEO 7)    
1 40544U 15017A   25011.15298238 -.00000092  00000+0  00000+0 0  9998
2 40544  56.9126 355.8123 0006022 276.1732  83.7539  1.70475638 60960
GSAT0204 (GALILEO 8)    
1 40545U 15017B   25011.40771906 -.00000093  00000+0  00000+0 0  9996
2 40545  56.9188 355.8217 0005584 267.6024  92.3286  1.70475334 23354
GSAT0205 (GALILEO 9)    
1 40889U 15045A   25010.00327410  .00000070  00000+0  00000+0 0  9994
2 40889  55.1278 236.0565 0006292  42.1394 317.9946  1.70473141 58097
